GLOBALSTAR M057         
1 25943U 99058A   25217.24103049 -.00000065  00000+0  25306-3 0  9994
2 25943  51.9957 208.9896 0002633 113.5038 246.6089 12.24827648172940
GLOBALSTAR M059         
1 25944U 99058B   25217.56404593 -.00000048  00000+0  46901-3 0  9993
2 25944  52.0021  73.5927 0001360  60.2140 337.5877 11.99980527579970
GLOBALSTAR M056         
1 25945U 99058C   25217.61483735 -.00000105  00000+0 -20823-3 0  9995
2 25945  51.9966  74.1464 0000505 338.0224  56.3142 12.04779988168585
GLOBALSTAR M031         
1 25946U 99058D   25217.55347674 -.00000175  00000+0 -85404-3 0  9993
2 25946  51.9991 323.6909 0000749 263.4296 109.5184 12.16039618170559
GLOBALSTAR M039         
1 25961U 99062A   25217.41496076 -.00000115  00000+0 -62437-4 0  9997
2 25961  51.9842 118.7783 0003146  87.9638 272.1589 12.62330117186436
GLOBALSTAR M034         
1 25962U 99062B   25217.54071532 -.00000040  00000+0  65020-3 0  9994
2 25962  51.9844 243.0985 0014163 135.2709 347.2601 11.79447381144210
GLOBALSTAR M029         
1 25963U 99062C   25217.57112801 -.00000070  00000+0  20486-3 0  9993
2 25963  51.9831 321.5696 0002546 201.3466 173.0174 11.99899218175053
GLOBALSTAR M061         
1 25964U 99062D   25217.32898808 -.00000102  00000+0 -34999-3 0  9996
2 25964  51.9798  68.3342 0006806  58.1904 112.8812 11.76775854126968
